COSMOS 1408 DEB         
1 49527U 82092Q   25064.58564749  .00149583  00000+0  46643-2 0  9997
2 49527  82.3510 121.9383 0155650 293.4058  65.0874 15.21668635173855
COSMOS 1408 DEB         
1 49537U 82092AA  25064.39623962  .00052610  00000+0  11781-2 0  9999
2 49537  82.5439  32.1255 0076041 215.3164 144.3033 15.40150627181772
COSMOS 1408 DEB         
1 50032U 82092RU  25064.27745220  .00007761  00000+0  17852-3 0  9993
2 50032  82.5679 347.2320 0017712 150.8695 209.3544 15.42284552182457
COSMOS 1408 DEB         
1 50058U 82092SW  25064.29835193  .00029514  00000+0  53086-3 0  9991
2 50058  82.6170   1.4043 0025387  64.0932 296.2931 15.49314167184124
COSMOS 1408 DEB         
1 50404U 82092ADS 25064.47381602  .00057796  00000+0  40616-2 0  9994
2 50404  82.2275 133.7455 0303104  56.0551 306.9076 14.74562729169871
COSMOS 1408 DEB         
1 50621U 82092ALR 25064.56265651  .00024891  00000+0  53489-3 0  9993
2 50621  82.5779   4.7685 0040849 102.5085 258.0737 15.43607678178803
COSMOS 1408 DEB         
1 50689U 82092APM 25064.16200358  .03372321 -12288-5  54211-3 0  9995
2 50689  82.4758 325.3440 0004240 254.6605 105.4222 16.33738444179470
COSMOS 1408 DEB         
1 51184U 82092AZJ 25064.45628539  .00124882  00000+0  64789-3 0  9990
2 51184  82.4811 323.8752 0008574   7.2132 352.9257 15.80593586177271
COSMOS 1408 DEB         
1 52066U 82092BUU 25064.35562580  .00183479  00000+0  16665-2 0  9998
2 52066  82.4948  38.7691 0047899 262.1012  97.4810 15.65915597166400
